     3.04           N: GNSS NAV DATA    M: MIXED            RINEX VERSION / TYPE
ssrcrin-15.6.1x                         20250101 221500 UTC PGM / RUN BY / DATE 
    18                                                      LEAP SECONDS        
                                                            END OF HEADER       
E31 2025 01 01 22 10 00-4.889670526609E-05-1.463718035666E-12 0.000000000000E+00
     5.700000000000E+01-2.618750000000E+01 3.493716955906E-09 2.008058829265E+00
    -1.149252057076E-06 1.739808358252E-04 6.204470992088E-06 5.440603139877E+03
     3.390000000000E+05-5.587935447693E-09 2.413356137216E+00 4.284083843231E-08
     9.641945978666E-01 2.083125000000E+02 1.945500535964E-01-5.547016769799E-09
    -4.646622121891E-10 5.170000000000E+02 2.347000000000E+03
     3.120000000000E+00 0.000000000000E+00 2.095475792885E-09 3.259629011154E-09
     3.396650000000E+05
E08 2025 01 01 22 10 00-3.936009597965E-04-6.167510946398E-12 0.000000000000E+00
     5.700000000000E+01-1.711250000000E+02 2.561892427389E-09 5.346622145073E-01
    -7.893890142441E-06 1.742013264447E-04 1.106224954128E-05 5.440619215012E+03
     3.390000000000E+05-5.960464477539E-08 3.138867342538E-01-8.009374141693E-08
     9.694365639641E-01 1.101875000000E+02 6.389677703152E-01-5.159500628197E-09
     1.675069773380E-10 5.170000000000E+02 2.347000000000E+03
     3.120000000000E+00 0.000000000000E+00-5.820766091347E-09-6.053596735001E-09
     3.396650000000E+05
E23 2025 01 01 22 10 00 8.341332431883E-06-1.989519660128E-13 0.000000000000E+00
     5.700000000000E+01-2.428125000000E+01 3.501931583793E-09 1.366687229997E+00
    -1.098960638046E-06 3.615872701630E-04 6.046146154404E-06 5.440610355377E+03
     3.390000000000E+05-7.823109626770E-08 2.409406474914E+00-9.313225746155E-09
     9.660997633958E-01 2.157812500000E+02 1.617246448143E+00-5.593804432979E-09
    -4.764484174176E-10 5.170000000000E+02 2.347000000000E+03
     3.120000000000E+00 3.900000000000E+02-6.984919309616E-10 1.164153218269E-09
     3.396650000000E+05
E29 2025 01 01 22 10 00-5.857262294739E-05-3.112177182629E-12 0.000000000000E+00
     5.700000000000E+01-1.455000000000E+02 2.717970357232E-09-3.072957678005E+00
    -6.768852472305E-06 3.132045967504E-04 1.139007508755E-05 5.440618860245E+03
     3.390000000000E+05 2.607703208923E-08 3.155411175884E-01 9.313225746155E-09
     9.569436999976E-01 9.437500000000E+01 2.645393514870E+00-5.331650656079E-09
     2.328668426958E-10 5.170000000000E+02 2.347000000000E+03
     3.120000000000E+00 0.000000000000E+00-5.122274160385E-09-4.190951585770E-09
     3.396650000000E+05
E33 2025 01 01 22 00 00 1.643667928874E-05 2.842170943040E-14 0.000000000000E+00
     5.600000000000E+01 1.753750000000E+02 2.723684880979E-09 2.552679216376E+00
     8.327886462212E-06 3.452473320067E-04 1.225620508194E-06 5.440611753464E+03
     3.384000000000E+05 7.450580596924E-08-1.776091104066E+00 3.166496753693E-08
     9.997063212782E-01 3.306875000000E+02-1.708335068681E+00-5.656664194198E-09
     2.153661137202E-10 2.580000000000E+02 2.347000000000E+03
     3.120000000000E+00 0.000000000000E+00-6.286427378654E-09 0.000000000000E+00
     3.396900000000E+05
S21 2025 01 01 22 21 52 0.000000000000E+00 0.000000000000E+00 3.397190000000E+05
     4.200468400000E+04 0.000000000000E+00 0.000000000000E+00 6.300000000000E+01
    -3.674932960000E+03 0.000000000000E+00 0.000000000000E+00 3.276700000000E+04
     0.000000000000E+00 0.000000000000E+00 0.000000000000E+00 8.400000000000E+01
E33 2025 01 01 22 10 00 1.643685391173E-05 2.842170943040E-14 0.000000000000E+00
     5.700000000000E+01 1.755000000000E+02 2.717970357232E-09 2.627179919995E+00
     8.335337042809E-06 3.449036739767E-04 1.367181539536E-06 5.440612438202E+03
     3.390000000000E+05 7.636845111847E-08-1.776094531683E+00 4.284083843231E-08
     9.997064207566E-01 3.278750000000E+02-1.708450295424E+00-5.657021351932E-09
     2.214377952016E-10 2.580000000000E+02 2.347000000000E+03
     3.120000000000E+00 0.000000000000E+00-6.286427378654E-09 0.000000000000E+00
     3.397400000000E+05
E31 2025 01 01 22 10 00-4.889804404229E-05-1.463718035666E-12 0.000000000000E+00
     5.700000000000E+01-2.618750000000E+01 3.493716955906E-09 2.008058829265E+00
    -1.149252057076E-06 1.739808358252E-04 6.204470992088E-06 5.440603139877E+03
     3.390000000000E+05-5.587935447693E-09 2.413356137216E+00 4.284083843231E-08
     9.641945978666E-01 2.083125000000E+02 1.945500535964E-01-5.547016769799E-09
    -4.646622121891E-10 2.580000000000E+02 2.347000000000E+03
     3.120000000000E+00 0.000000000000E+00 2.095475792885E-09 0.000000000000E+00
     3.397400000000E+05
E08 2025 01 01 22 10 00-3.936010762118E-04-6.167510946398E-12 0.000000000000E+00
     5.700000000000E+01-1.711250000000E+02 2.561892427389E-09 5.346622145073E-01
    -7.893890142441E-06 1.742013264447E-04 1.106224954128E-05 5.440619215012E+03
     3.390000000000E+05-5.960464477539E-08 3.138867342538E-01-8.009374141693E-08
     9.694365639641E-01 1.101875000000E+02 6.389677703152E-01-5.159500628197E-09
     1.675069773380E-10 2.580000000000E+02 2.347000000000E+03
     3.120000000000E+00 0.000000000000E+00-5.820766091347E-09 0.000000000000E+00
     3.397400000000E+05
E13 2025 01 01 22 10 00-2.862408291548E-05-4.405364961713E-13 0.000000000000E+00
     5.700000000000E+01 1.786875000000E+02 2.627609450481E-09-2.717320897311E+00
     8.240342140198E-06 3.849661443383E-04 2.698972821236E-06 5.440608129501E+03
     3.390000000000E+05-5.960464477539E-08-1.776058880370E+00-3.725290298462E-09
     9.996892680421E-01 2.990625000000E+02-1.102261333220E+00-5.543802350192E-09
     2.339383158984E-10 2.580000000000E+02 2.347000000000E+03
     3.120000000000E+00 0.000000000000E+00 2.561137080193E-09 0.000000000000E+00
     3.397400000000E+05
E23 2025 01 01 22 10 00 8.339295163751E-06-1.989519660128E-13 0.000000000000E+00
     5.700000000000E+01-2.428125000000E+01 3.501931583793E-09 1.366687229997E+00
    -1.098960638046E-06 3.615872701630E-04 6.046146154404E-06 5.440610355377E+03
     3.390000000000E+05-7.823109626770E-08 2.409406474914E+00-9.313225746155E-09
     9.660997633958E-01 2.157812500000E+02 1.617246448143E+00-5.593804432979E-09
    -4.764484174176E-10 2.580000000000E+02 2.347000000000E+03
     3.120000000000E+00 4.800000000000E+01-6.984919309616E-10 0.000000000000E+00
     3.397400000000E+05
E29 2025 01 01 22 10 00-5.857390351593E-05-3.112177182629E-12 0.000000000000E+00
     5.700000000000E+01-1.455000000000E+02 2.717970357232E-09-3.072957678005E+00
    -6.768852472305E-06 3.132045967504E-04 1.139007508755E-05 5.440618860245E+03
     3.390000000000E+05 2.607703208923E-08 3.155411175884E-01 9.313225746155E-09
     9.569436999976E-01 9.437500000000E+01 2.645393514870E+00-5.331650656079E-09
     2.328668426958E-10 2.580000000000E+02 2.347000000000E+03
     3.120000000000E+00 0.000000000000E+00-5.122274160385E-09 0.000000000000E+00
     3.397400000000E+05
S44 2025 01 01 22 22 56 8.414499461651E-07 0.000000000000E+00 3.397520000000E+05
     7.313262320000E+03-2.387500000000E-04 1.500000000000E-07 6.300000000000E+01
     4.149933928000E+04 1.911875000000E-03 6.250000000000E-08 3.276700000000E+04
     1.648609600000E+03-7.270800000000E-02-4.375000000000E-06 6.000000000000E+01
S36 2025 01 01 22 22 40 0.000000000000E+00 0.000000000000E+00 3.397750000000E+05
     4.200368800000E+04 0.000000000000E+00 0.000000000000E+00 6.300000000000E+01
     3.674846960000E+03 0.000000000000E+00 0.000000000000E+00 3.276700000000E+04
     0.000000000000E+00 0.000000000000E+00 0.000000000000E+00 1.690000000000E+02
S23 2025 01 01 22 22 56 0.000000000000E+00 0.000000000000E+00 3.397830000000E+05
     3.866796400000E+04 0.000000000000E+00 0.000000000000E+00 6.300000000000E+01
     1.681330800000E+04 0.000000000000E+00 0.000000000000E+00 3.276700000000E+04
     0.000000000000E+00 0.000000000000E+00 0.000000000000E+00 1.150000000000E+02
S44 2025 01 01 22 24 00 8.414499461651E-07 0.000000000000E+00 3.398720000000E+05
     7.313247680000E+03-2.193750000000E-04 1.500000000000E-07 6.300000000000E+01
     4.149946200000E+04 1.920625000000E-03 6.250000000000E-08 3.276700000000E+04
     1.643938400000E+03-7.326800000000E-02-4.375000000000E-06 6.000000000000E+01
S27 2025 01 01 22 25 04 0.000000000000E+00 0.000000000000E+00 3.398790000000E+05
     2.419380856000E+04 2.181250000000E-03-2.875000000000E-07 6.300000000000E+01
     3.456511320000E+04-3.795625000000E-03 6.250000000000E-08 3.276700000000E+04
     4.054328000000E+02 2.852400000000E-02-2.187500000000E-06 5.700000000000E+01
S28 2025 01 01 22 25 04 1.396983861923E-09 6.366462912410E-12 3.398790000000E+05
     5.145099520000E+03 5.831250000000E-04-1.625000000000E-07 3.100000000000E+01
     4.185602664000E+04-1.265000000000E-03 1.250000000000E-08 4.096000000000E+03
    -1.210400000000E+01-1.332000000000E-03 6.250000000000E-08 5.700000000000E+01
S21 2025 01 01 22 24 32 0.000000000000E+00 0.000000000000E+00 3.398860000000E+05
     4.200468400000E+04 0.000000000000E+00 0.000000000000E+00 6.300000000000E+01
    -3.674932960000E+03 0.000000000000E+00 0.000000000000E+00 3.276700000000E+04
     0.000000000000E+00 0.000000000000E+00 0.000000000000E+00 8.500000000000E+01
S23 2025 01 01 22 25 04 0.000000000000E+00 0.000000000000E+00 3.399100000000E+05
     3.866796400000E+04 0.000000000000E+00 0.000000000000E+00 6.300000000000E+01
     1.681330800000E+04 0.000000000000E+00 0.000000000000E+00 3.276700000000E+04
     0.000000000000E+00 0.000000000000E+00 0.000000000000E+00 1.160000000000E+02
S36 2025 01 01 22 25 20 0.000000000000E+00 0.000000000000E+00 3.399230000000E+05
     4.200368800000E+04 0.000000000000E+00 0.000000000000E+00 6.300000000000E+01
     3.674846960000E+03 0.000000000000E+00 0.000000000000E+00 3.276700000000E+04
     0.000000000000E+00 0.000000000000E+00 0.000000000000E+00 1.700000000000E+02
